start=new Date('2023-01-22T00:00:00.000Z').valueOf();
sats=[{"BSTAR":"-0.00001902200000","MEAN_MOTION":"15.01261415","RA_OF_ASC_NODE":"204.2516","TIME_SYSTEM":"UTC","PERIAPSIS":"562.711","MEAN_MOTION_DDOT":"0.0000000000000","OBJECT_NAME":"STARLINK-4343","TLE_LINE1":"1 53050U 22077H   23021.07881792 -.00000303  00000-0 -19022-4 0  9997","INCLINATION":"97.6556","RCS_SIZE":"LARGE","MEAN_MOTION_DOT":"-0.00000303","DECAY_DATE":null,"EPOCH":"2023-01-21T01:53:29.868288","SITE":"AFWTR","REV_AT_EPOCH":"2991","ARG_OF_PERICENTER":"219.7574","PERIOD":"95.919","NORAD_CAT_ID":"53050","ELEMENT_SET_NO":"999","APOAPSIS":"563.304","REF_FRAME":"TEME","LAUNCH_DATE":"2022-07-11","MEAN_ELEMENT_THEORY":"SGP4","CENTER_NAME":"EARTH","EPHEMERIS_TYPE":"0","OBJECT_TYPE":"PAYLOAD","COUNTRY_CODE":"US","GP_ID":"223557709","FILE":"3756321","ECCENTRICITY":"0.00004270","CLASSIFICATION_TYPE":"U","SEMIMAJOR_AXIS":"6941.142","TLE_LINE2":"2 53050  97.6556 204.2516 0000427 219.7574 140.3619 15.01261415 29912","MEAN_ANOMALY":"140.3619","OBJECT_ID":"2022-077H"},{"GP_ID":"223570248","COUNTRY_CODE":"US","LAUNCH_DATE":"2022-07-11","REF_FRAME":"TEME","APOAPSIS":"563.685","EPHEMERIS_TYPE":"0","CENTER_NAME":"EARTH","MEAN_ELEMENT_THEORY":"SGP4","OBJECT_TYPE":"PAYLOAD","CLASSIFICATION_TYPE":"U","SEMIMAJOR_AXIS":"6941.116","OBJECT_ID":"2022-077J","MEAN_ANOMALY":"263.7471","TLE_LINE2":"2 53051  97.6559 204.6396 0001015  96.3869 263.7471 15.01270079 29974","FILE":"3756864","ECCENTRICITY":"0.00010150","TLE_LINE1":"1 53051U 22077J   23021.47317329  .00000437  00000-0  38640-4 0  9995","RCS_SIZE":"LARGE","INCLINATION":"97.6559","DECAY_DATE":null,"MEAN_MOTION_DOT":"0.00000437","BSTAR":"0.00003864000000","MEAN_MOTION":"15.01270079","PERIAPSIS":"562.276","RA_OF_ASC_NODE":"204.6396","TIME_SYSTEM":"UTC","OBJECT_NAME":"STARLINK-4336","MEAN_MOTION_DDOT":"0.0000000000000","ARG_OF_PERICENTER":"96.3869","PERIOD":"95.919","ELEMENT_SET_NO":"999","NORAD_CAT_ID":"53051","EPOCH":"2023-01-21T11:21:22.172256","REV_AT_EPOCH":"2997","SITE":"AFWTR"},{"ECCENTRICITY":"0.00002160","FILE":"3757095","SEMIMAJOR_AXIS":"6941.122","TLE_LINE2":"2 53052  97.6551 204.9093 0000216 172.9507 187.1720 15.01268036 30019","OBJECT_ID":"2022-077K","MEAN_ANOMALY":"187.1720","CLASSIFICATION_TYPE":"U","OBJECT_TYPE":"PAYLOAD","APOAPSIS":"563.137","REF_FRAME":"TEME","LAUNCH_DATE":"2022-07-11","MEAN_ELEMENT_THEORY":"SGP4","CENTER_NAME":"EARTH","EPHEMERIS_TYPE":"0","GP_ID":"223576406","COUNTRY_CODE":"US","EPOCH":"2023-01-21T17:50:37.288032","SITE":"AFWTR","REV_AT_EPOCH":"3001","ELEMENT_SET_NO":"999","NORAD_CAT_ID":"53052","ARG_OF_PERICENTER":"172.9507","PERIOD":"95.919","TIME_SYSTEM":"UTC","RA_OF_ASC_NODE":"204.9093","PERIAPSIS":"562.837","MEAN_MOTION_DDOT":"0.0000000000000","OBJECT_NAME":"STARLINK-4341","BSTAR":"0.00015057000000","MEAN_MOTION":"15.01268036","INCLINATION":"97.6551","RCS_SIZE":"LARGE","MEAN_MOTION_DOT":"0.00001876","DECAY_DATE":null,"TLE_LINE1":"1 53052U 22077K   23021.74348713  .00001876  00000-0  15057-3 0  9991"},{"ELEMENT_SET_NO":"999","NORAD_CAT_ID":"53053","PERIOD":"95.919","ARG_OF_PERICENTER":"232.1608","REV_AT_EPOCH":"2997","SITE":"AFWTR","EPOCH":"2023-01-21T11:16:02.393760","DECAY_DATE":null,"MEAN_MOTION_DOT":"0.00000673","RCS_SIZE":"LARGE","INCLINATION":"97.6561","TLE_LINE1":"1 53053U 22077L   23021.46947215  .00000673  00000-0  56996-4 0  9995","OBJECT_NAME":"STARLINK-4337","MEAN_MOTION_DDOT":"0.0000000000000","PERIAPSIS":"562.507","TIME_SYSTEM":"UTC","RA_OF_ASC_NODE":"204.6376","BSTAR":"0.00005699600000","MEAN_MOTION":"15.01263593","OBJECT_ID":"2022-077L","MEAN_ANOMALY":"127.9552","TLE_LINE2":"2 53053  97.6561 204.6376 0000711 232.1608 127.9552 15.01263593 29974","SEMIMAJOR_AXIS":"6941.136","CLASSIFICATION_TYPE":"U","ECCENTRICITY":"0.00007110","FILE":"3756865","COUNTRY_CODE":"US","GP_ID":"223570759","OBJECT_TYPE":"PAYLOAD","CENTER_NAME":"EARTH","EPHEMERIS_TYPE":"0","MEAN_ELEMENT_THEORY":"SGP4","LAUNCH_DATE":"2022-07-11","REF_FRAME":"TEME","APOAPSIS":"563.494"},{"CLASSIFICATION_TYPE":"U","SEMIMAJOR_AXIS":"6941.136","MEAN_ANOMALY":"272.9091","OBJECT_ID":"2022-077M","TLE_LINE2":"2 53054  97.6566 204.9047 0001066  87.2255 272.9091 15.01263563 30012","FILE":"3757095","ECCENTRICITY":"0.00010660","GP_ID":"223576404","COUNTRY_CODE":"US","LAUNCH_DATE":"2022-07-11","REF_FRAME":"TEME","APOAPSIS":"563.741","CENTER_NAME":"EARTH","EPHEMERIS_TYPE":"0","MEAN_ELEMENT_THEORY":"SGP4","OBJECT_TYPE":"PAYLOAD","ARG_OF_PERICENTER":"87.2255","PERIOD":"95.919","ELEMENT_SET_NO":"999","NORAD_CAT_ID":"53054","EPOCH":"2023-01-21T17:47:57.405696","REV_AT_EPOCH":"3001","SITE":"AFWTR","TLE_LINE1":"1 53054U 22077M   23021.74163664  .00001358  00000-0  11032-3 0  9997","RCS_SIZE":"LARGE","INCLINATION":"97.6566","DECAY_DATE":null,"MEAN_MOTION_DOT":"0.00001358","BSTAR":"0.00011032000000","MEAN_MOTION":"15.01263563","PERIAPSIS":"562.261","TIME_SYSTEM":"UTC","RA_OF_ASC_NODE":"204.9047","OBJECT_NAME":"STARLINK-4339","MEAN_MOTION_DDOT":"0.0000000000000"},{"ECCENTRICITY":"0.00006330","FILE":"3755973","SEMIMAJOR_AXIS":"6941.139","TLE_LINE2":"2 53055  97.6543 203.6492 0000633  64.1975 295.9315 15.01262578 29242","MEAN_ANOMALY":"295.9315","OBJECT_ID":"2022-077N","CLASSIFICATION_TYPE":"U","OBJECT_TYPE":"PAYLOAD","APOAPSIS":"563.443","LAUNCH_DATE":"2022-07-11","REF_FRAME":"TEME","MEAN_ELEMENT_THEORY":"SGP4","CENTER_NAME":"EARTH","EPHEMERIS_TYPE":"0","GP_ID":"223549605","COUNTRY_CODE":"US","EPOCH":"2023-01-20T11:13:41.135808","SITE":"AFWTR","REV_AT_EPOCH":"2924","NORAD_CAT_ID":"53055","ELEMENT_SET_NO":"999","ARG_OF_PERICENTER":"64.1975","PERIOD":"95.919","RA_OF_ASC_NODE":"203.6492","TIME_SYSTEM":"UTC","PERIAPSIS":"562.565","MEAN_MOTION_DDOT":"0.0000000000000","OBJECT_NAME":"STARLINK-4338","BSTAR":"0.00006029000000","MEAN_MOTION":"15.01262578","INCLINATION":"97.6543","RCS_SIZE":"LARGE","MEAN_MOTION_DOT":"0.00000716","DECAY_DATE":null,"TLE_LINE1":"1 53055U 22077N   23020.46783722  .00000716  00000-0  60290-4 0  9997"},{"FILE":"3757095","ECCENTRICITY":"0.00005510","CLASSIFICATION_TYPE":"U","TLE_LINE2":"2 53056  97.6561 204.9000 0000551 107.1224 253.0060 15.01266160 30016","OBJECT_ID":"2022-077P","MEAN_ANOMALY":"253.0060","SEMIMAJOR_AXIS":"6941.128","MEAN_ELEMENT_THEORY":"SGP4","CENTER_NAME":"EARTH","EPHEMERIS_TYPE":"0","APOAPSIS":"563.375","LAUNCH_DATE":"2022-07-11","REF_FRAME":"TEME","OBJECT_TYPE":"PAYLOAD","COUNTRY_CODE":"US","GP_ID":"223576155","SITE":"AFWTR","REV_AT_EPOCH":"3001","EPOCH":"2023-01-21T17:42:37.421568","PERIOD":"95.919","ARG_OF_PERICENTER":"107.1224","NORAD_CAT_ID":"53056","ELEMENT_SET_NO":"999","BSTAR":"0.00008955900000","MEAN_MOTION":"15.01266160","MEAN_MOTION_DDOT":"0.0000000000000","OBJECT_NAME":"STARLINK-4314","TIME_SYSTEM":"UTC","RA_OF_ASC_NODE":"204.9000","PERIAPSIS":"562.610","TLE_LINE1":"1 53056U 22077P   23021.73793312  .00001092  00000-0  89559-4 0  9992","MEAN_MOTION_DOT":"0.00001092","DECAY_DATE":null,"INCLINATION":"97.6561","RCS_SIZE":"LARGE"},{"APOAPSIS":"563.611","REF_FRAME":"TEME","LAUNCH_DATE":"2022-07-11","MEAN_ELEMENT_THEORY":"SGP4","CENTER_NAME":"EARTH","EPHEMERIS_TYPE":"0","OBJECT_TYPE":"PAYLOAD","COUNTRY_CODE":"US","GP_ID":"223549111","FILE":"3755973","ECCENTRICITY":"0.00008860","CLASSIFICATION_TYPE":"U","SEMIMAJOR_AXIS":"6941.131","TLE_LINE2":"2 53057  97.6556 203.6457 0000886  78.0276 282.1047 15.01265169 29246","OBJECT_ID":"2022-077Q","MEAN_ANOMALY":"282.1047","BSTAR":"0.00013592000000","MEAN_MOTION":"15.01265169","TIME_SYSTEM":"UTC","RA_OF_ASC_NODE":"203.6457","PERIAPSIS":"562.381","MEAN_MOTION_DDOT":"0.0000000000000","OBJECT_NAME":"STARLINK-4252","TLE_LINE1":"1 53057U 22077Q   23020.46413515  .00001687  00000-0  13592-3 0  9999","INCLINATION":"97.6556","RCS_SIZE":"LARGE","MEAN_MOTION_DOT":"0.00001687","DECAY_DATE":null,"EPOCH":"2023-01-20T11:08:21.276960","SITE":"AFWTR","REV_AT_EPOCH":"2924","ARG_OF_PERICENTER":"78.0276","PERIOD":"95.919","NORAD_CAT_ID":"53057","ELEMENT_SET_NO":"999"},{"TLE_LINE1":"1 53058U 22077R   23021.46786820  .00000355  00000-0  32191-4 0  9991","RCS_SIZE":"LARGE","INCLINATION":"97.6565","DECAY_DATE":null,"MEAN_MOTION_DOT":"0.00000355","BSTAR":"0.00003219100000","MEAN_MOTION":"15.01264821","PERIAPSIS":"562.220","RA_OF_ASC_NODE":"204.6348","TIME_SYSTEM":"UTC","OBJECT_NAME":"STARLINK-4317","MEAN_MOTION_DDOT":"0.0000000000000","ARG_OF_PERICENTER":"76.0684","PERIOD":"95.919","ELEMENT_SET_NO":"999","NORAD_CAT_ID":"53058","EPOCH":"2023-01-21T11:13:43.812480","REV_AT_EPOCH":"2939","SITE":"AFWTR","GP_ID":"223571256","COUNTRY_CODE":"US","REF_FRAME":"TEME","LAUNCH_DATE":"2022-07-11","APOAPSIS":"563.774","EPHEMERIS_TYPE":"0","CENTER_NAME":"EARTH","MEAN_ELEMENT_THEORY":"SGP4","OBJECT_TYPE":"PAYLOAD","CLASSIFICATION_TYPE":"U","SEMIMAJOR_AXIS":"6941.132","MEAN_ANOMALY":"284.0665","OBJECT_ID":"2022-077R","TLE_LINE2":"2 53058  97.6565 204.6348 0001120  76.0684 284.0665 15.01264821 29397","FILE":"3756885","ECCENTRICITY":"0.00011200"},{"GP_ID":"223558907","COUNTRY_CODE":"US","OBJECT_TYPE":"PAYLOAD","MEAN_ELEMENT_THEORY":"SGP4","EPHEMERIS_TYPE":"0","CENTER_NAME":"EARTH","APOAPSIS":"563.624","REF_FRAME":"TEME","LAUNCH_DATE":"2022-07-11","TLE_LINE2":"2 53059  97.6580 204.2375 0000896  71.6125 288.5196 15.01263331 29912","OBJECT_ID":"2022-077S","MEAN_ANOMALY":"288.5196","SEMIMAJOR_AXIS":"6941.137","CLASSIFICATION_TYPE":"U","ECCENTRICITY":"0.00008960","FILE":"3756375","MEAN_MOTION_DOT":"0.00002493","DECAY_DATE":null,"INCLINATION":"97.6580","RCS_SIZE":"LARGE","TLE_LINE1":"1 53059U 22077S   23021.06054941  .00002493  00000-0  19863-3 0  9995","MEAN_MOTION_DDOT":"0.0000000000000","OBJECT_NAME":"STARLINK-4320","TIME_SYSTEM":"UTC","RA_OF_ASC_NODE":"204.2375","PERIAPSIS":"562.380","BSTAR":"0.00019863000000","MEAN_MOTION":"15.01263331","NORAD_CAT_ID":"53059","ELEMENT_SET_NO":"999","PERIOD":"95.919","ARG_OF_PERICENTER":"71.6125","SITE":"AFWTR","REV_AT_EPOCH":"2991","EPOCH":"2023-01-21T01:27:11.469024"}];
